{
"type": "FeatureCollection",
"name": "Trazado_cable",
"crs": { "type": "name", "properties": { "name": "urn:ogc:def:crs:OGC:1.3:CRS84" } },
"features": [
{"type":"Feature","properties":{"objectid":17,"id_subtram":101,"nom_traz":"Ciudad Bolivar","long_traz":1717,"origen":"Tunal","destino":"Juan Pablo II","eta_oper":1,"cable":"Ciudad Bolivar","id_tram":100,"esta_oper":1,"globalid":"{F4CAD0CA-489A-4618-8151-A8A37032C5AB}"},"geometry":{"type":"LineString","coordinates":[[-74.139676779895495,4.569193483848131],[-74.139839441944076,4.568911982927755],[-74.140163034797794,4.568351975300965],[-74.140864750567701,4.567137586281106],[-74.141001971407391,4.566900111026199],[-74.141580869459901,4.565898267032513],[-74.142569244283393,4.564187770763914],[-74.143483513690398,4.562605514910739],[-74.144358061014501,4.561091996484541],[-74.14514819525786,4.559724559272209],[-74.14663043286491,4.557159323308333],[-74.147241674614989,4.556101472104878],[-74.147264933748176,4.556061218038326],[-74.147412546968624,4.555805748355884],[-74.147422723625937,4.55578761592027]]}},
{"type":"Feature","properties":{"objectid":18,"id_subtram":102,"nom_traz":"Ciudad Bolivar","long_traz":702,"origen":"Juan Pablo II","destino":"Manitas","eta_oper":1,"cable":"Ciudad Bolivar","id_tram":100,"esta_oper":1,"globalid":"{1F6367D1-53B2-4A80-A64D-4008FA1B66F6}"},"geometry":{"type":"LineString","coordinates":[[-74.147412546968624,4.555805748355884],[-74.147422723625937,4.55578761592027],[-74.147529738423742,4.555596953124289],[-74.147868092222112,4.554994117784253],[-74.148178533866343,4.554441014023074],[-74.149041673377099,4.552903177649897],[-74.150337670538335,4.550594114104004],[-74.150516792398719,4.55027497343753]]}},
{"type":"Feature","properties":{"objectid":19,"id_subtram":103,"nom_traz":"Ciudad Bolivar","long_traz":925,"origen":"Manitas","destino":"Mirador del Paraiso","eta_oper":1,"cable":"Ciudad Bolivar","id_tram":100,"esta_oper":1,"globalid":"{45217403-E417-4F96-A458-FB6197027C82}"},"geometry":{"type":"LineString","coordinates":[[-74.150516792398719,4.55027497343753],[-74.150806135712585,4.550268886947346],[-74.150977740459396,4.550265277523506],[-74.152393221805568,4.550235501860701],[-74.153697821182092,4.550208056530604],[-74.154668572013264,4.550187633227196],[-74.156449568939834,4.550150159835325],[-74.158412889231059,4.55010884537224],[-74.158850556213551,4.550099634459959]]}}
]
}
